{"type": "FeatureCollection", "features": [ {"type": "Feature", "properties": {"norad_id": 32106, "name": "FENGYUN 1C DEB", "group": "fengyun-1c-debris", "lat": -17.434880234364492, "lon": -31.787458490065006, "alt_km": 751.7712783425104, "timestamp": "2025-12-17T15:50:10.065318+00:00", "meta": {"OBJECT_NAME": "FENGYUN 1C DEB", "OBJECT_ID": "1999-025CQY", "EPOCH": "2025-12-14T15:33:56.008224", "MEAN_MOTION": 14.27045005, "ECCENTRICITY": 0.01101626, "INCLINATION": 101.4619, "RA_OF_ASC_NODE": 320.6242, "ARG_OF_PERICENTER": 37.2039, "MEAN_ANOMALY": 323.67, "EPHEMERIS_TYPE": 0, "CLASSIFICATION_TYPE": "U", "NORAD_CAT_ID": 32106, "ELEMENT_SET_NO": 999, "REV_AT_EPOCH": 69419, "BSTAR": 0.003667977, "MEAN_MOTION_DOT": 9.474e-05, "MEAN_MOTION_DDOT": 0}, "tle": {"line1": "1 32106U 99025CQY 25348.64856491  .00009474  00000+0  36680-2 0  9990", "line2": "2 32106 101.4619 320.6242 0110162  37.2039 323.6700 14.27045005694198"}}, "geometry": {"type": "Point", "coordinates": [-31.787458490065006, -17.434880234364492]}}, {"type": "Feature", "properties": {"norad_id": 32109, "name": "FENGYUN 1C DEB", "group": "fengyun-1c-debris", "lat": -71.5587211142614, "lon": 24.895868922816312, "alt_km": 678.8931395013551, "timestamp": "2025-12-17T15:50:10.065329+00:00", "meta": {"OBJECT_NAME": "FENGYUN 1C DEB", "OBJECT_ID": "1999-025CRB", "EPOCH": "2025-12-15T22:26:56.704992", "MEAN_MOTION": 14.3395276, "ECCENTRICITY": 0.02055059, "INCLINATION": 98.3614, "RA_OF_ASC_NODE": 229.3988, "ARG_OF_PERICENTER": 302.7937, "MEAN_ANOMALY": 55.3599, "EPHEMERIS_TYPE": 0, "CLASSIFICATION_TYPE": "U", "NORAD_CAT_ID": 32109, "ELEMENT_SET_NO": 999, "REV_AT_EPOCH": 64934, "BSTAR": 0.00043905437, "MEAN_MOTION_DOT": 1.501e-05, "MEAN_MOTION_DDOT": 0}, "tle": {"line1": "1 32109U 99025CRB 25349.93537853  .00001501  00000+0  43905-3 0  9996", "line2": "2 32109  98.3614 229.3988 0205505 302.7937  55.3599 14.33952760649349"}}, "geometry": {"type": "Point", "coordinates": [24.895868922816312, -71.5587211142614]}}, {"type": "Feature", "properties": {"norad_id": 32110, "name": "FENGYUN 1C DEB", "group": "fengyun-1c-debris", "lat": -9.201454768154472, "lon": -20.24497269701867, "alt_km": 822.3040251435323, "timestamp": "2025-12-17T15:50:10.065339+00:00", "meta": {"OBJECT_NAME": "FENGYUN 1C DEB", "OBJECT_ID": "1999-025CRC", "EPOCH": "2025-12-15T23:19:37.733664", "MEAN_MOTION": 14.28919204, "ECCENTRICITY": 0.0033408, "INCLINATION": 99.5428, "RA_OF_ASC_NODE": 159.4713, "ARG_OF_PERICENTER": 357.4893, "MEAN_ANOMALY": 154.0044, "EPHEMERIS_TYPE": 0, "CLASSIFICATION_TYPE": "U", "NORAD_CAT_ID": 32110, "ELEMENT_SET_NO": 999, "REV_AT_EPOCH": 64434, "BSTAR": 0.0010448124, "MEAN_MOTION_DOT": 2.604e-05, "MEAN_MOTION_DDOT": 0}, "tle": {"line1": "1 32110U 99025CRC 25349.97196451  .00002604  00000+0  10448-2 0  9997", "line2": "2 32110  99.5428 159.4713 0033408 357.4893 154.0044 14.28919204644342"}}, "geometry": {"type": "Point", "coordinates": [-20.24497269701867, -9.201454768154472]}}, {"type": "Feature", "properties": {"norad_id": 32111, "name": "FENGYUN 1C DEB", "group": "fengyun-1c-debris", "lat": -55.90503243731367, "lon": 158.5809987458467, "alt_km": 733.933265393548, "timestamp": "2025-12-17T15:50:10.065349+00:00", "meta": {"OBJECT_NAME": "FENGYUN 1C DEB", "OBJECT_ID": "1999-025CRD", "EPOCH": "2025-12-15T19:42:16.254144", "MEAN_MOTION": 14.31549486, "ECCENTRICITY": 0.0119844, "INCLINATION": 98.4433, "RA_OF_ASC_NODE": 349.4679, "ARG_OF_PERICENTER": 195.708, "MEAN_ANOMALY": 289.022, "EPHEMERIS_TYPE": 0, "CLASSIFICATION_TYPE": "U", "NORAD_CAT_ID": 32111, "ELEMENT_SET_NO": 999, "REV_AT_EPOCH": 96075, "BSTAR": 0.00019315823, "MEAN_MOTION_DOT": 5.12e-06, "MEAN_MOTION_DDOT": 0}, "tle": {"line1": "1 32111U 99025CRD 25349.82102146  .00000512  00000+0  19316-3 0  9990", "line2": "2 32111  98.4433 349.4679 0119844 195.7080 289.0220 14.31549486960755"}}, "geometry": {"type": "Point", "coordinates": [158.5809987458467, -55.90503243731367]}}, {"type": "Feature", "properties": {"norad_id": 32113, "name": "FENGYUN 1C DEB", "group": "fengyun-1c-debris", "lat": -2.2961689786758614, "lon": -154.03376357669896, "alt_km": 765.9014477827468, "timestamp": "2025-12-17T15:50:10.065359+00:00", "meta": {"OBJECT_NAME": "FENGYUN 1C DEB", "OBJECT_ID": "1999-025CRF", "EPOCH": "2025-12-14T19:47:44.837664", "MEAN_MOTION": 13.94564965, "ECCENTRICITY": 0.02380847, "INCLINATION": 99.0277, "RA_OF_ASC_NODE": 23.5568, "ARG_OF_PERICENTER": 220.9453, "MEAN_ANOMALY": 137.3616, "EPHEMERIS_TYPE": 0, "CLASSIFICATION_TYPE": "U", "NORAD_CAT_ID": 32113, "ELEMENT_SET_NO": 999, "REV_AT_EPOCH": 62915, "BSTAR": 0.0009179447, "MEAN_MOTION_DOT": 1.508e-05, "MEAN_MOTION_DDOT": 0}, "tle": {"line1": "1 32113U 99025CRF 25348.82482451  .00001508  00000+0  91794-3 0  9997", "line2": "2 32113  99.0277  23.5568 0238084 220.9453 137.3616 13.94564965629157"}}, "geometry": {"type": "Point", "coordinates": [-154.03376357669896, -2.2961689786758614]}}, {"type": "Feature", "properties": {"norad_id": 32114, "name": "FENGYUN 1C DEB", "group": "fengyun-1c-debris", "lat": -34.63014158704647, "lon": 116.77503098268902, "alt_km": 613.4554717620485, "timestamp": "2025-12-17T15:50:10.065370+00:00", "meta": {"OBJECT_NAME": "FENGYUN 1C DEB", "OBJECT_ID": "1999-025CRG", "EPOCH": "2025-12-06T13:19:21.641376", "MEAN_MOTION": 14.76489439, "ECCENTRICITY": 0.00447682, "INCLINATION": 99.9287, "RA_OF_ASC_NODE": 96.1919, "ARG_OF_PERICENTER": 3.5911, "MEAN_ANOMALY": 356.5605, "EPHEMERIS_TYPE": 0, "CLASSIFICATION_TYPE": "U", "NORAD_CAT_ID": 32114, "ELEMENT_SET_NO": 999, "REV_AT_EPOCH": 65638, "BSTAR": 0.0040574802, "MEAN_MOTION_DOT": 0.0002877, "MEAN_MOTION_DDOT": 0}, "tle": {"line1": "1 32114U 99025CRG 25340.55511159  .00028770  00000+0  40575-2 0  9998", "line2": "2 32114  99.9287  96.1919 0044768   3.5911 356.5605 14.76489439656383"}}, "geometry": {"type": "Point", "coordinates": [116.77503098268902, -34.63014158704647]}}, {"type": "Feature", "properties": {"norad_id": 32117, "name": "FENGYUN 1C DEB", "group": "fengyun-1c-debris", "lat": -71.44709384871283, "lon": 63.73963507962754, "alt_km": 836.5321897758358, "timestamp": "2025-12-17T15:50:10.065380+00:00", "meta": {"OBJECT_NAME": "FENGYUN 1C DEB", "OBJECT_ID": "1999-025CRK", "EPOCH": "2025-12-10T08:47:41.781984", "MEAN_MOTION": 14.23925187, "ECCENTRICITY": 0.00275954, "INCLINATION": 98.6124, "RA_OF_ASC_NODE": 29.7522, "ARG_OF_PERICENTER": 98.5643, "MEAN_ANOMALY": 261.8664, "EPHEMERIS_TYPE": 0, "CLASSIFICATION_TYPE": "U", "NORAD_CAT_ID": 32117, "ELEMENT_SET_NO": 999, "REV_AT_EPOCH": 94763, "BSTAR": 0.0014152729, "MEAN_MOTION_DOT": 3.215e-05, "MEAN_MOTION_DDOT": 0}, "tle": {"line1": "1 32117U 99025CRK 25344.36645581  .00003215  00000+0  14153-2 0  9991", "line2": "2 32117  98.6124  29.7522 0027595  98.5643 261.8664 14.23925187947630"}}, "geometry": {"type": "Point", "coordinates": [63.73963507962754, -71.44709384871283]}}, {"type": "Feature", "properties": {"norad_id": 32119, "name": "FENGYUN 1C DEB", "group": "fengyun-1c-debris", "lat": -62.055235885307646, "lon": -126.21674687477541, "alt_km": 904.3093118011357, "timestamp": "2025-12-17T15:50:10.065391+00:00", "meta": {"OBJECT_NAME": "FENGYUN 1C DEB", "OBJECT_ID": "1999-025CRM", "EPOCH": "2025-12-13T21:24:57.902112", "MEAN_MOTION": 14.02823835, "ECCENTRICITY": 0.0085741, "INCLINATION": 99.8872, "RA_OF_ASC_NODE": 210.5017, "ARG_OF_PERICENTER": 49.2118, "MEAN_ANOMALY": 311.6444, "EPHEMERIS_TYPE": 0, "CLASSIFICATION_TYPE": "U", "NORAD_CAT_ID": 32119, "ELEMENT_SET_NO": 999, "REV_AT_EPOCH": 93744, "BSTAR": 0.00096504005, "MEAN_MOTION_DOT": 1.492e-05, "MEAN_MOTION_DDOT": 0}, "tle": {"line1": "1 32119U 99025CRM 25347.89233683  .00001492  00000+0  96504-3 0  9996", "line2": "2 32119  99.8872 210.5017 0085741  49.2118 311.6444 14.02823835937443"}}, "geometry": {"type": "Point", "coordinates": [-126.21674687477541, -62.055235885307646]}}, {"type": "Feature", "properties": {"norad_id": 32123, "name": "FENGYUN 1C DEB", "group": "fengyun-1c-debris", "lat": 14.746201341360518, "lon": -17.756548026315603, "alt_km": 731.9779504411326, "timestamp": "2025-12-17T15:50:10.065402+00:00", "meta": {"OBJECT_NAME": "FENGYUN 1C DEB", "OBJECT_ID": "1999-025CRR", "EPOCH": "2025-12-17T06:01:55.684416", "MEAN_MOTION": 14.61476657, "ECCENTRICITY": 0.01595393, "INCLINATION": 98.9405, "RA_OF_ASC_NODE": 159.4273, "ARG_OF_PERICENTER": 279.3082, "MEAN_ANOMALY": 259.34, "EPHEMERIS_TYPE": 0, "CLASSIFICATION_TYPE": "U", "NORAD_CAT_ID": 32123, "ELEMENT_SET_NO": 999, "REV_AT_EPOCH": 71440, "BSTAR": 0.00022800781, "MEAN_MOTION_DOT": 1.287e-05, "MEAN_MOTION_DDOT": 0}, "tle": {"line1": "1 32123U 99025CRR 25351.25133894  .00001287  00000+0  22801-3 0  9990", "line2": "2 32123  98.9405 159.4273 0159539 279.3082 259.3400 14.61476657714408"}}, "geometry": {"type": "Point", "coordinates": [-17.756548026315603, 14.746201341360518]}}, {"type": "Feature", "properties": {"norad_id": 32125, "name": "FENGYUN 1C DEB", "group": "fengyun-1c-debris", "lat": 74.71572132982749, "lon": -171.72086152475913, "alt_km": 763.5656985529095, "timestamp": "2025-12-17T15:50:10.065413+00:00", "meta": {"OBJECT_NAME": "FENGYUN 1C DEB", "OBJECT_ID": "1999-025CRT", "EPOCH": "2025-12-14T04:03:21.187008", "MEAN_MOTION": 14.69917548, "ECCENTRICITY": 0.0174033, "INCLINATION": 99.062, "RA_OF_ASC_NODE": 328.6692, "ARG_OF_PERICENTER": 318.7989, "MEAN_ANOMALY": 40.0184, "EPHEMERIS_TYPE": 0, "CLASSIFICATION_TYPE": "U", "NORAD_CAT_ID": 32125, "ELEMENT_SET_NO": 999, "REV_AT_EPOCH": 70544, "BSTAR": 0.002785531, "MEAN_MOTION_DOT": 0.00021057, "MEAN_MOTION_DDOT": 0}, "tle": {"line1": "1 32125U 99025CRT 25348.16899522  .00021057  00000+0  27855-2 0  9995", "line2": "2 32125  99.0620 328.6692 0174033 318.7989  40.0184 14.69917548705441"}}, "geometry": {"type": "Point", "coordinates": [-171.72086152475913, 74.71572132982749]}}]}